{"type": "FeatureCollection", "features": [ {"type": "Feature", "properties": {"norad_id": 66845, "name": "STARLINK-36068", "group": "last-30-days", "lat": -24.091320395220013, "lon": -169.65345044740124, "alt_km": 329.65160010401905, "timestamp": "2025-12-12T09:49:07.483088+00:00", "meta": {"OBJECT_NAME": "STARLINK-36068", "OBJECT_ID": "2025-280AA", "EPOCH": "2025-12-12T04:00:01.998720", "MEAN_MOTION": 15.82662279, "ECCENTRICITY": 0.0003894, "INCLINATION": 69.9909, "RA_OF_ASC_NODE": 200.4184, "ARG_OF_PERICENTER": 273.8446, "MEAN_ANOMALY": 120.1118, "EPHEMERIS_TYPE": 0, "CLASSIFICATION_TYPE": "U", "NORAD_CAT_ID": 66845, "ELEMENT_SET_NO": 999, "REV_AT_EPOCH": 280, "BSTAR": -0.010125, "MEAN_MOTION_DOT": -0.01869789, "MEAN_MOTION_DDOT": 0}, "tle": {"line1": "1 66845U 25280AA  25346.16668980 -.01869789  00000+0 -10125-1 0  9999", "line2": "2 66845  69.9909 200.4184 0003894 273.8446 120.1118 15.82662279  2802"}}, "geometry": {"type": "Point", "coordinates": [-169.65345044740124, -24.091320395220013]}}, {"type": "Feature", "properties": {"norad_id": 66846, "name": "STARLINK-36055", "group": "last-30-days", "lat": -27.404079375833824, "lon": -171.161808631403, "alt_km": 329.8061465031051, "timestamp": "2025-12-12T09:49:07.483099+00:00", "meta": {"OBJECT_NAME": "STARLINK-36055", "OBJECT_ID": "2025-280AB", "EPOCH": "2025-12-12T04:00:01.998720", "MEAN_MOTION": 15.82601843, "ECCENTRICITY": 0.0004039, "INCLINATION": 69.991, "RA_OF_ASC_NODE": 200.4223, "ARG_OF_PERICENTER": 275.2123, "MEAN_ANOMALY": 115.2105, "EPHEMERIS_TYPE": 0, "CLASSIFICATION_TYPE": "U", "NORAD_CAT_ID": 66846, "ELEMENT_SET_NO": 999, "REV_AT_EPOCH": 280, "BSTAR": -0.010104, "MEAN_MOTION_DOT": -0.01861944, "MEAN_MOTION_DDOT": 0}, "tle": {"line1": "1 66846U 25280AB  25346.16668980 -.01861944  00000+0 -10104-1 0  9992", "line2": "2 66846  69.9910 200.4223 0004039 275.2123 115.2105 15.82601843  2800"}}, "geometry": {"type": "Point", "coordinates": [-171.161808631403, -27.404079375833824]}}, {"type": "Feature", "properties": {"norad_id": 66847, "name": "STARLINK-36061", "group": "last-30-days", "lat": -25.784009526141027, "lon": -170.41238915404125, "alt_km": 329.70868278292164, "timestamp": "2025-12-12T09:49:07.483110+00:00", "meta": {"OBJECT_NAME": "STARLINK-36061", "OBJECT_ID": "2025-280AC", "EPOCH": "2025-12-12T04:00:01.998720", "MEAN_MOTION": 15.82632362, "ECCENTRICITY": 0.000399, "INCLINATION": 69.991, "RA_OF_ASC_NODE": 200.4207, "ARG_OF_PERICENTER": 274.7431, "MEAN_ANOMALY": 117.4079, "EPHEMERIS_TYPE": 0, "CLASSIFICATION_TYPE": "U", "NORAD_CAT_ID": 66847, "ELEMENT_SET_NO": 999, "REV_AT_EPOCH": 275, "BSTAR": -0.01009, "MEAN_MOTION_DOT": -0.01861964, "MEAN_MOTION_DDOT": 0}, "tle": {"line1": "1 66847U 25280AC  25346.16668980 -.01861964  00000+0 -10090-1 0  9999", "line2": "2 66847  69.9910 200.4207 0003990 274.7431 117.4079 15.82632362  2752"}}, "geometry": {"type": "Point", "coordinates": [-170.41238915404125, -25.784009526141027]}}, {"type": "Feature", "properties": {"norad_id": 66848, "name": "STARLINK-36091", "group": "last-30-days", "lat": 32.84503107946263, "lon": 168.29817411223493, "alt_km": 293.7611446045312, "timestamp": "2025-12-12T09:49:07.483120+00:00", "meta": {"OBJECT_NAME": "STARLINK-36091", "OBJECT_ID": "2025-281A", "EPOCH": "2025-12-12T04:00:01.998720", "MEAN_MOTION": 15.92066505, "ECCENTRICITY": 0.0001721, "INCLINATION": 43.0014, "RA_OF_ASC_NODE": 125.9565, "ARG_OF_PERICENTER": 274.7982, "MEAN_ANOMALY": 187.0238, "EPHEMERIS_TYPE": 0, "CLASSIFICATION_TYPE": "U", "NORAD_CAT_ID": 66848, "ELEMENT_SET_NO": 999, "REV_AT_EPOCH": 131, "BSTAR": -0.0033867, "MEAN_MOTION_DOT": -0.01168525, "MEAN_MOTION_DDOT": 0.00040192}, "tle": {"line1": "1 66848U 25281A   25346.16668980 -.01168525  40192-3 -33867-2 0  9992", "line2": "2 66848  43.0014 125.9565 0001721 274.7982 187.0238 15.92066505  1312"}}, "geometry": {"type": "Point", "coordinates": [168.29817411223493, 32.84503107946263]}}, {"type": "Feature", "properties": {"norad_id": 66849, "name": "STARLINK-36102", "group": "last-30-days", "lat": 33.893191881734765, "lon": 170.5724456373159, "alt_km": 293.42571210834285, "timestamp": "2025-12-12T09:49:07.483130+00:00", "meta": {"OBJECT_NAME": "STARLINK-36102", "OBJECT_ID": "2025-281B", "EPOCH": "2025-12-12T04:00:01.998720", "MEAN_MOTION": 15.92107752, "ECCENTRICITY": 0.0001608, "INCLINATION": 43.0016, "RA_OF_ASC_NODE": 125.9507, "ARG_OF_PERICENTER": 277.0582, "MEAN_ANOMALY": 186.9007, "EPHEMERIS_TYPE": 0, "CLASSIFICATION_TYPE": "U", "NORAD_CAT_ID": 66849, "ELEMENT_SET_NO": 999, "REV_AT_EPOCH": 131, "BSTAR": -0.0033956, "MEAN_MOTION_DOT": -0.01174037, "MEAN_MOTION_DDOT": 0.00040555}, "tle": {"line1": "1 66849U 25281B   25346.16668980 -.01174037  40555-3 -33956-2 0  9990", "line2": "2 66849  43.0016 125.9507 0001608 277.0582 186.9007 15.92107752  1319"}}, "geometry": {"type": "Point", "coordinates": [170.5724456373159, 33.893191881734765]}}, {"type": "Feature", "properties": {"norad_id": 66850, "name": "STARLINK-36105", "group": "last-30-days", "lat": 35.228750813419424, "lon": 173.7064396255606, "alt_km": 293.1206023592367, "timestamp": "2025-12-12T09:49:07.483143+00:00", "meta": {"OBJECT_NAME": "STARLINK-36105", "OBJECT_ID": "2025-281C", "EPOCH": "2025-12-12T04:00:01.998720", "MEAN_MOTION": 15.921604, "ECCENTRICITY": 0.000151, "INCLINATION": 43.0014, "RA_OF_ASC_NODE": 125.9436, "ARG_OF_PERICENTER": 272.7255, "MEAN_ANOMALY": 194.0991, "EPHEMERIS_TYPE": 0, "CLASSIFICATION_TYPE": "U", "NORAD_CAT_ID": 66850, "ELEMENT_SET_NO": 999, "REV_AT_EPOCH": 131, "BSTAR": -0.003409, "MEAN_MOTION_DOT": -0.01181815, "MEAN_MOTION_DDOT": 0.00041069}, "tle": {"line1": "1 66850U 25281C   25346.16668980 -.01181815  41069-3 -34090-2 0  9995", "line2": "2 66850  43.0014 125.9436 0001510 272.7255 194.0991 15.92160400  1312"}}, "geometry": {"type": "Point", "coordinates": [173.7064396255606, 35.228750813419424]}}, {"type": "Feature", "properties": {"norad_id": 66851, "name": "STARLINK-36094", "group": "last-30-days", "lat": 36.19901091198453, "lon": 176.18484003261838, "alt_km": 292.83567557319657, "timestamp": "2025-12-12T09:49:07.483169+00:00", "meta": {"OBJECT_NAME": "STARLINK-36094", "OBJECT_ID": "2025-281D", "EPOCH": "2025-12-12T04:00:01.998720", "MEAN_MOTION": 15.92203978, "ECCENTRICITY": 0.0001576, "INCLINATION": 43.0014, "RA_OF_ASC_NODE": 125.9381, "ARG_OF_PERICENTER": 277.5829, "MEAN_ANOMALY": 191.4365, "EPHEMERIS_TYPE": 0, "CLASSIFICATION_TYPE": "U", "NORAD_CAT_ID": 66851, "ELEMENT_SET_NO": 999, "REV_AT_EPOCH": 131, "BSTAR": -0.0033873, "MEAN_MOTION_DOT": -0.01177053, "MEAN_MOTION_DDOT": 0.00040784}, "tle": {"line1": "1 66851U 25281D   25346.16668980 -.01177053  40784-3 -33873-2 0  9996", "line2": "2 66851  43.0014 125.9381 0001576 277.5829 191.4365 15.92203978  1318"}}, "geometry": {"type": "Point", "coordinates": [176.18484003261838, 36.19901091198453]}}, {"type": "Feature", "properties": {"norad_id": 66852, "name": "STARLINK-35992", "group": "last-30-days", "lat": 37.08433060623552, "lon": 178.6297123571659, "alt_km": 292.6383539171966, "timestamp": "2025-12-12T09:49:07.483180+00:00", "meta": {"OBJECT_NAME": "STARLINK-35992", "OBJECT_ID": "2025-281E", "EPOCH": "2025-12-12T04:00:01.998720", "MEAN_MOTION": 15.92248362, "ECCENTRICITY": 0.0001654, "INCLINATION": 43.0017, "RA_OF_ASC_NODE": 125.9327, "ARG_OF_PERICENTER": 278.057, "MEAN_ANOMALY": 193.0777, "EPHEMERIS_TYPE": 0, "CLASSIFICATION_TYPE": "U", "NORAD_CAT_ID": 66852, "ELEMENT_SET_NO": 999, "REV_AT_EPOCH": 131, "BSTAR": -0.0033908, "MEAN_MOTION_DOT": -0.01180978, "MEAN_MOTION_DDOT": 0.00041051}, "tle": {"line1": "1 66852U 25281E   25346.16668980 -.01180978  41051-3 -33908-2 0  9994", "line2": "2 66852  43.0017 125.9327 0001654 278.0570 193.0777 15.92248362  1319"}}, "geometry": {"type": "Point", "coordinates": [178.6297123571659, 37.08433060623552]}}, {"type": "Feature", "properties": {"norad_id": 66853, "name": "STARLINK-35986", "group": "last-30-days", "lat": 38.26844516998029, "lon": -177.74728434729175, "alt_km": 292.40469346957525, "timestamp": "2025-12-12T09:49:07.483190+00:00", "meta": {"OBJECT_NAME": "STARLINK-35986", "OBJECT_ID": "2025-281F", "EPOCH": "2025-12-12T04:00:01.998720", "MEAN_MOTION": 15.92310549, "ECCENTRICITY": 0.0001725, "INCLINATION": 43.0015, "RA_OF_ASC_NODE": 125.9249, "ARG_OF_PERICENTER": 275.4205, "MEAN_ANOMALY": 198.7673, "EPHEMERIS_TYPE": 0, "CLASSIFICATION_TYPE": "U", "NORAD_CAT_ID": 66853, "ELEMENT_SET_NO": 999, "REV_AT_EPOCH": 131, "BSTAR": -0.0034128, "MEAN_MOTION_DOT": -0.01192403, "MEAN_MOTION_DDOT": 0.00041805}, "tle": {"line1": "1 66853U 25281F   25346.16668980 -.01192403  41805-3 -34128-2 0  9993", "line2": "2 66853  43.0015 125.9249 0001725 275.4205 198.7673 15.92310549  1310"}}, "geometry": {"type": "Point", "coordinates": [-177.74728434729175, 38.26844516998029]}}, {"type": "Feature", "properties": {"norad_id": 66854, "name": "STARLINK-36087", "group": "last-30-days", "lat": 39.29058907803183, "lon": -174.18550479994727, "alt_km": 292.2130240456181, "timestamp": "2025-12-12T09:49:07.483201+00:00", "meta": {"OBJECT_NAME": "STARLINK-36087", "OBJECT_ID": "2025-281G", "EPOCH": "2025-12-12T04:00:01.998720", "MEAN_MOTION": 15.92367743, "ECCENTRICITY": 0.0001774, "INCLINATION": 43.0016, "RA_OF_ASC_NODE": 125.9173, "ARG_OF_PERICENTER": 270.104, "MEAN_ANOMALY": 206.9983, "EPHEMERIS_TYPE": 0, "CLASSIFICATION_TYPE": "U", "NORAD_CAT_ID": 66854, "ELEMENT_SET_NO": 999, "REV_AT_EPOCH": 131, "BSTAR": -0.0034258, "MEAN_MOTION_DOT": -0.01200433, "MEAN_MOTION_DDOT": 0.00042345}, "tle": {"line1": "1 66854U 25281G   25346.16668980 -.01200433  42345-3 -34258-2 0  9991", "line2": "2 66854  43.0016 125.9173 0001774 270.1040 206.9983 15.92367743  1315"}}, "geometry": {"type": "Point", "coordinates": [-174.18550479994727, 39.29058907803183]}}]}